H1 CPF  1  DLR 2022 04 01 10  5912 technosat            
H2  1704205 6203    42829 2022 04 01 00 00 00 2022 04 08 00 00 00    60 1 1  0 0 0
H9
10 0 59671  36000.000000  0       5797608.087      -2936257.908      -2532130.298
10 0 59671  36060.000000  0       5889058.214      -3085686.486      -2108587.551
10 0 59671  36120.000000  0       5954453.165      -3222805.942      -1676100.118
10 0 59671  36180.000000  0       5993625.131      -3346808.085      -1236501.557
10 0 59671  36240.000000  0       6006524.480      -3456939.385       -791656.323
10 0 59671  36300.000000  0       5993219.545      -3552505.274       -343451.653
10 0 59671  36360.000000  0       5953895.878      -3632874.171        106210.610
10 0 59671  36420.000000  0       5888854.961      -3697481.270        555422.298
10 0 59671  36480.000000  0       5798512.357      -3745832.023       1002277.274
10 0 59671  36540.000000  0       5683395.272      -3777505.236       1444879.845
10 0 59671  36600.000000  0       5544139.480      -3792155.723       1881353.073
10 0 59671  36660.000000  0       5381485.767      -3789516.612       2309846.857
10 0 59671  36720.000000  0       5196275.963      -3769401.331       2728545.894
10 0 59671  36780.000000  0       4989448.488      -3731705.164       3135677.550
10 0 59671  36840.000000  0       4762033.439      -3676406.329       3529519.420
10 0 59671  36900.000000  0       4515147.353      -3603566.713       3908406.609
10 0 59671  36960.000000  0       4249987.611      -3513332.251       4270738.805
10 0 59671  37020.000000  0       3967826.402      -3405932.865       4614987.078
10 0 59671  37080.000000  0       3670004.352      -3281681.936       4939700.223
10 0 59671  37140.000000  0       3357923.979      -3140975.369       5243510.688
10 0 59671  37200.000000  0       3033042.987      -2984290.287       5525140.163
10 0 59671  37260.000000  0       2696867.323      -2812183.333       5783404.777
10 0 59671  37320.000000  0       2350944.068      -2625288.626       6017219.836
10 0 59671  37380.000000  0       1996854.236      -2424315.341       6225604.122
10 0 59671  37440.000000  0       1636205.521      -2210044.957       6407683.735
10 0 59671  37500.000000  0       1270624.992      -1983328.182       6562695.549
10 0 59671  37560.000000  0        901751.740      -1745081.494       6689990.154
10 0 59671  37620.000000  0        531229.600      -1496283.433       6789034.343
10 0 59671  37680.000000  0        160699.905      -1237970.583       6859413.178
10 0 59671  37740.000000  0       -208205.706       -971233.239       6900831.564
10 0 59671  37800.000000  0       -573872.334       -697210.870       6913115.335
10 0 59671  37860.000000  0       -934708.779       -417087.334       6896211.989
10 0 59671  37920.000000  0      -1289154.378       -132085.809       6850190.891
10 0 59671  37980.000000  0      -1635685.653        156536.458       6775243.019
10 0 59671  38040.000000  0      -1972822.768        447493.617       6671680.279
10 0 59671  38100.000000  0      -2299135.805        739476.847       6539934.336
10 0 59671  38160.000000  0      -2613250.805       1031160.154       6380554.980
10 0 59671  38220.000000  0      -2913855.535       1321206.302       6194208.057
10 0 59671  38280.000000  0      -3199705.015       1608272.868       5981672.954
10 0 59671  38340.000000  0      -3469626.777       1891018.400       5743839.626
10 0 59671  38400.000000  0      -3722525.811       2168108.675       5481705.156
10 0 59671  38460.000000  0      -3957389.161       2438223.017       5196369.826
10 0 59671  38520.000000  0      -4173290.149       2700060.621       4889032.740
10 0 59671  38580.000000  0      -4369392.249       2952346.832       4560987.018
10 0 59671  38640.000000  0      -4544952.563       3193839.379       4213614.526
10 0 59671  38700.000000  0      -4699324.806       3423334.547       3848380.238
10 0 59671  38760.000000  0      -4831961.915       3639673.259       3466826.191
10 0 59671  38820.000000  0      -4942418.132       3841747.011       3070565.057
10 0 59671  38880.000000  0      -5030350.666       4028503.633       2661273.423
10 0 59671  38940.000000  0      -5095520.903       4198952.884       2240684.679
10 0 59671  39000.000000  0      -5137795.070       4352171.767       1810581.591
10 0 59671  39060.000000  0      -5157144.356       4487309.585       1372788.599
10 0 59671  39120.000000  0      -5153644.524       4603592.573        929163.878
10 0 59671  39180.000000  0      -5127475.023       4700328.181        481591.306
10 0 59671  39240.000000  0      -5078917.649       4776909.091         31972.283
10 0 59671  39300.000000  0      -5008354.678       4832816.797       -417782.628
10 0 59671  39360.000000  0      -4916266.515       4867624.769       -865762.129
10 0 59671  39420.000000  0      -4803228.737       4881001.184      -1310062.674
10 0 59671  39480.000000  0      -4669908.656       4872711.103      -1748796.791
10 0 59671  39540.000000  0      -4517061.608       4842618.200      -2180101.338
10 0 59671  39600.000000  0      -4345526.731       4790685.966      -2602145.714
10 0 59671  39660.000000  0      -4156222.323       4716978.426      -3013139.807
10 0 59671  39720.000000  0      -3950140.847       4621660.356      -3411341.746
10 0 59671  39780.000000  0      -3728343.627       4504996.981      -3795065.336
10 0 59671  39840.000000  0      -3491955.281       4367353.251      -4162687.211
10 0 59671  39900.000000  0      -3242157.874       4209192.563      -4512653.694
10 0 59671  39960.000000  0      -2980184.908       4031075.058      -4843487.198
10 0 59671  40020.000000  0      -2707315.198       3833655.545      -5153792.349
10 0 59671  40080.000000  0      -2424866.544       3617680.951      -5442261.773
10 0 59671  40140.000000  0      -2134189.277       3383987.312      -5707681.459
10 0 59671  40200.000000  0      -1836659.714       3133496.342      -5948935.681
10 0 59671  40260.000000  0      -1533673.579       2867211.599      -6165011.473
10 0 59671  40320.000000  0      -1226639.406       2586214.269      -6355002.611
10 0 59671  40380.000000  0       -916972.004       2291658.661      -6518113.095
10 0 59671  40440.000000  0       -606085.980       1984767.432      -6653660.257
10 0 59671  40500.000000  0       -295389.292       1666826.407      -6761077.396
10 0 59671  40560.000000  0         13722.997       1339179.155      -6839915.876
10 0 59671  40620.000000  0        319874.869       1003221.366      -6889846.894
10 0 59671  40680.000000  0        621715.450        660394.967      -6910662.786
10 0 59671  40740.000000  0        917924.959        312181.939      -6902277.821
10 0 59671  40800.000000  0       1207220.410        -39902.076      -6864728.437
10 0 59671  40860.000000  0       1488361.082       -394314.291      -6798173.011
10 0 59671  40920.000000  0       1760153.740       -749491.412      -6702891.220
10 0 59671  40980.000000  0       2021457.639      -1103856.433      -6579283.012
10 0 59671  41040.000000  0       2271189.340      -1455825.589      -6427867.040
10 0 59671  41100.000000  0       2508327.183      -1803815.299      -6249278.594
10 0 59671  41160.000000  0       2731915.446      -2146249.188      -6044267.210
10 0 59671  41220.000000  0       2941068.282      -2481565.227      -5813693.861
10 0 59671  41280.000000  0       3134973.367      -2808222.969      -5558527.602
10 0 59671  41340.000000  0       3312895.188      -3124710.727      -5279841.652
10 0 59671  41400.000000  0       3474177.886      -3429552.632      -4978808.991
10 0 59671  41460.000000  0       3618247.711      -3721315.539      -4656697.596
10 0 59671  41520.000000  0       3744615.117      -3998615.819      -4314865.333
10 0 59671  41580.000000  0       3852876.505      -4260126.043      -3954754.454
10 0 59671  41640.000000  0       3942715.580      -4504581.490      -3577885.658
10 0 59671  41700.000000  0       4013904.296      -4730786.417      -3185851.790
10 0 59671  41760.000000  0       4066303.412      -4937620.100      -2780311.167
10 0 59671  41820.000000  0       4099862.567      -5124042.616      -2362980.533
10 0 59671  41880.000000  0       4114619.840      -5289100.196      -1935627.670
10 0 59671  41940.000000  0       4110700.942      -5431930.161      -1500063.849
10 0 59671  42000.000000  0       4088318.024      -5551765.541      -1058136.022
10 0 59671  42060.000000  0       4047767.993      -5647939.234       -611718.760
10 0 59671  42120.000000  0       3989430.390      -5719887.645       -162706.096
10 0 59671  42180.000000  0       3913764.859      -5767153.871        286996.709
10 0 59671  42240.000000  0       3821308.267      -5789390.392        735481.464
10 0 59671  42300.000000  0       3712671.466      -5786361.225       1180845.410
10 0 59671  42360.000000  0       3588535.671      -5757943.502       1621199.611
10 0 59671  42420.000000  0       3449648.411      -5704128.421       2054677.187
10 0 59671  42480.000000  0       3296819.239      -5625021.697       2479441.333
10 0 59671  42540.000000  0       3130915.173      -5520843.522       2893693.231
10 0 59671  42600.000000  0       2952855.890      -5391927.953       3295679.799
10 0 59671  42660.000000  0       2763608.713      -5238721.699       3683701.155
10 0 59671  42720.000000  0       2564183.455      -5061782.433       4056117.804
10 0 59671  42780.000000  0       2355627.067      -4861776.593       4411357.600
10 0 59671  42840.000000  0       2139018.124      -4639476.605       4747922.316
10 0 59671  42900.000000  0       1915461.312      -4395757.659       5064393.779
10 0 59671  42960.000000  0       1686081.853      -4131594.088       5359439.773
10 0 59671  43020.000000  0       1452019.818      -3848055.189       5631819.520
10 0 59671  43080.000000  0       1214424.449      -3546300.641       5880388.650
10 0 59671  43140.000000  0        974448.541      -3227575.564       6104103.720
99
